STARLINK-37628          
1 69823U 26154E   26192.50002315 -.01785819  93307-3 -39336-2 0  9994
2 69823  53.1597 311.7303 0001011  54.3558  19.2215 15.97517528  2070
STARLINK-37695          
1 69824U 26154F   26192.50002315 -.01793091  94145-3 -39215-2 0  9993
2 69824  53.1598 311.7255 0000922  69.5160   6.4529 15.97647549  2078
STARLINK-37690          
1 69825U 26154G   26192.50002315 -.01789506  93918-3 -38874-2 0  9997
2 69825  53.1597 311.7214 0000945  70.3638   7.5940 15.97768091  2073
STARLINK-37710          
1 69826U 26154H   26192.50002315 -.01790557  94149-3 -38625-2 0  9997
2 69826  53.1596 311.7164 0001037  58.0903  22.2228 15.97894101  2073
STARLINK-38031          
1 69827U 26154J   26192.50002315 -.01776774  92917-3 -38092-2 0  9992
2 69827  53.1596 311.7117 0000914  67.7160  14.7472 15.98003430  2072
STARLINK-38001          
1 69828U 26154K   26192.50002315 -.01773603  92725-3 -37778-2 0  9998
2 69828  53.1596 311.7076 0000932  68.9425  15.6212 15.98119029  2078
STARLINK-37622          
1 69829U 26154L   26192.50002315 -.01773326  92816-3 -37526-2 0  9993
2 69829  53.1595 311.7031 0000975  70.8796  15.8172 15.98235963  2072
STARLINK-37621          
1 69830U 26154M   26192.50002315 -.01768319  92445-3 -37179-2 0  9993
2 69830  53.1595 311.6992 0000969  69.6884  18.8937 15.98351152  2077
STARLINK-37918          
1 69831U 26154N   26192.50002315 -.01776790  93395-3 -37100-2 0  9995
2 69831  53.1595 311.6953 0001028  55.4668  34.9552 15.98475101  2078
STARLINK-37887          
1 69832U 26154P   26192.50002315 -.01773431  93183-3 -36794-2 0  9998
2 69832  53.1595 311.6915 0000971  68.0062  24.2390 15.98588979  2071
STARLINK-37624          
1 69833U 26154Q   26192.50002315 -.01770300  92992-3 -36497-2 0  9998
2 69833  53.1594 311.6866 0000896  67.8912  26.8106 15.98701311  2073
STARLINK-37769          
1 69834U 26154R   26192.50002315 -.01771300  93206-3 -36283-2 0  9992
2 69834  53.1594 311.6818 0001017  57.0511  39.9347 15.98815762  2071
STARLINK-37247          
1 69835U 26154S   26192.50002315 -.01773384  93528-3 -36092-2 0  9992
2 69835  53.1594 311.6772 0001012  51.7003  47.4688 15.98930619  2175
STARLINK-37569          
1 69836U 26154T   26192.50002315 -.01756792  92016-3 -35536-2 0  9990
2 69836  53.1592 311.6735 0000936  68.4195  32.5445 15.99036661  2074
STARLINK-37587          
1 69837U 26154U   26192.50002315 -.01763033  92743-3 -35428-2 0  9994
2 69837  53.1593 311.6681 0000945  73.5404  30.0451 15.99154183  2043
STARLINK-37590          
1 69838U 26154V   26192.50002315 -.01756007  92172-3 -35061-2 0  9997
2 69838  53.1591 311.6639 0000879  76.4499  29.1719 15.99266676  1919
STARLINK-37589          
1 69839U 26154W   26192.50002315 -.01754119  92099-3 -34807-2 0  9995
2 69839  53.1590 311.6593 0000955  74.9995  32.8953 15.99375617  2049
STARLINK-37487          
1 69840U 26154X   26192.50002315 -.01348216  60184-3 -19601-2 0  9999
2 69840  53.1588 311.5278 0000925  62.5541 107.9644 16.04612023  2047
STARLINK-37433          
1 69841U 26154Y   26192.50002315 -.01364455  61670-3 -19584-2 0  9994
2 69841  53.1588 311.5185 0000998  60.9182 114.0711 16.04825450  2176
STARLINK-37588          
1 69842U 26154Z   26192.50002315 -.01359002  61381-3 -19238-2 0  9992
2 69842  53.1587 311.5084 0000936  64.6442 115.1364 16.05051527  2078
STARLINK-37579          
1 69843U 26154AA  26192.50002315 -.01394177  64582-3 -19331-2 0  9995
2 69843  53.1587 311.4949 0000972  57.1563 129.0485 16.05395181  2074
STARLINK-37584          
1 69844U 26154AB  26192.50002315 -.01391434  64485-3 -19080-2 0  9992
2 69844  53.1588 311.4864 0000980  58.3734 131.7160 16.05574821  2074
STARLINK-37606          
1 69845U 26154AC  26192.50002315 -.01398592  65274-3 -18907-2 0  9999
2 69845  53.1585 311.4767 0000837  55.4729 139.3039 16.05807162  2073
STARLINK-37603          
1 69846U 26154AD  26192.50002315 -.01442773  69379-3 -19122-2 0  9991
2 69846  53.1587 311.4647 0000972  64.0622 136.3412 16.06133495  2075
STARLINK-37595          
1 69847U 26154AE  26192.50002315 -.01434623  68799-3 -18813-2 0  9998
2 69847  53.1586 311.4561 0000918  60.5610 143.8472 16.06302464  2071
2026-158A               
1 69972U 26158A   26192.48090097 -.00000088  00000+0  30360-4 0  9994
2 69972  49.9853 296.0945 0004897 288.4346  71.6034 14.25145244   172
2026-158B               
1 69973U 26158B   26192.55126534  .00000128  00000+0  12249-3 0  9998
2 69973  49.9848 295.7993 0005672 299.2394  60.7952 14.24885271   180
CZ-10B R/B              
1 69974U 26158C   26191.83284742  .00000207  00000+0  64180-4 0  9995
2 69974  49.9651 298.6353 0197627 184.6042 175.3074 14.64294088    85
