OBJECT_NAME,OBJECT_ID,EPOCH,MEAN_MOTION,ECCENTRICITY,INCLINATION,RA_OF_ASC_NODE,ARG_OF_PERICENTER,MEAN_ANOMALY,EPHEMERIS_TYPE,CLASSIFICATION_TYPE,NORAD_CAT_ID,ELEMENT_SET_NO,REV_AT_EPOCH,BSTAR,MEAN_MOTION_DOT,MEAN_MOTION_DDOT
STARLINK-37628,2026-154E,2026-07-11T12:00:02.000160,15.97517528,.0001011,53.1597,311.7303,54.3558,19.2215,0,U,69823,999,207,-.39336E-2,-.1785819E-1,.93307E-3
STARLINK-37695,2026-154F,2026-07-11T12:00:02.000160,15.97647549,.0000922,53.1598,311.7255,69.5160,6.4529,0,U,69824,999,207,-.39215E-2,-.1793091E-1,.94145E-3
STARLINK-37690,2026-154G,2026-07-11T12:00:02.000160,15.97768091,.0000945,53.1597,311.7214,70.3638,7.5940,0,U,69825,999,207,-.38874E-2,-.1789506E-1,.93918E-3
STARLINK-37710,2026-154H,2026-07-11T12:00:02.000160,15.97894101,.0001037,53.1596,311.7164,58.0903,22.2228,0,U,69826,999,207,-.38625E-2,-.1790557E-1,.94149E-3
STARLINK-38031,2026-154J,2026-07-11T12:00:02.000160,15.98003430,.0000914,53.1596,311.7117,67.7160,14.7472,0,U,69827,999,207,-.38092E-2,-.1776774E-1,.92917E-3
STARLINK-38001,2026-154K,2026-07-11T12:00:02.000160,15.98119029,.0000932,53.1596,311.7076,68.9425,15.6212,0,U,69828,999,207,-.37778E-2,-.1773603E-1,.92725E-3
STARLINK-37622,2026-154L,2026-07-11T12:00:02.000160,15.98235963,.0000975,53.1595,311.7031,70.8796,15.8172,0,U,69829,999,207,-.37526E-2,-.1773326E-1,.92816E-3
STARLINK-37621,2026-154M,2026-07-11T12:00:02.000160,15.98351152,.0000969,53.1595,311.6992,69.6884,18.8937,0,U,69830,999,207,-.37179E-2,-.1768319E-1,.92445E-3
STARLINK-37918,2026-154N,2026-07-11T12:00:02.000160,15.98475101,.0001028,53.1595,311.6953,55.4668,34.9552,0,U,69831,999,207,-.371E-2,-.177679E-1,.93395E-3
STARLINK-37887,2026-154P,2026-07-11T12:00:02.000160,15.98588979,.0000971,53.1595,311.6915,68.0062,24.2390,0,U,69832,999,207,-.36794E-2,-.1773431E-1,.93183E-3
STARLINK-37624,2026-154Q,2026-07-11T12:00:02.000160,15.98701311,.0000896,53.1594,311.6866,67.8912,26.8106,0,U,69833,999,207,-.36497E-2,-.17703E-1,.92992E-3
STARLINK-37769,2026-154R,2026-07-11T12:00:02.000160,15.98815762,.0001017,53.1594,311.6818,57.0511,39.9347,0,U,69834,999,207,-.36283E-2,-.17713E-1,.93206E-3
STARLINK-37247,2026-154S,2026-07-11T12:00:02.000160,15.98930619,.0001012,53.1594,311.6772,51.7003,47.4688,0,U,69835,999,217,-.36092E-2,-.1773384E-1,.93528E-3
STARLINK-37569,2026-154T,2026-07-11T12:00:02.000160,15.99036661,.0000936,53.1592,311.6735,68.4195,32.5445,0,U,69836,999,207,-.35536E-2,-.1756792E-1,.92016E-3
STARLINK-37587,2026-154U,2026-07-11T12:00:02.000160,15.99154183,.0000945,53.1593,311.6681,73.5404,30.0451,0,U,69837,999,204,-.35428E-2,-.1763033E-1,.92743E-3
STARLINK-37590,2026-154V,2026-07-11T12:00:02.000160,15.99266676,.0000879,53.1591,311.6639,76.4499,29.1719,0,U,69838,999,191,-.35061E-2,-.1756007E-1,.92172E-3
STARLINK-37589,2026-154W,2026-07-11T12:00:02.000160,15.99375617,.0000955,53.1590,311.6593,74.9995,32.8953,0,U,69839,999,204,-.34807E-2,-.1754119E-1,.92099E-3
STARLINK-37487,2026-154X,2026-07-11T12:00:02.000160,16.04612023,.0000925,53.1588,311.5278,62.5541,107.9644,0,U,69840,999,204,-.19601E-2,-.1348216E-1,.60184E-3
STARLINK-37433,2026-154Y,2026-07-11T12:00:02.000160,16.04825450,.0000998,53.1588,311.5185,60.9182,114.0711,0,U,69841,999,217,-.19584E-2,-.1364455E-1,.6167E-3
STARLINK-37588,2026-154Z,2026-07-11T12:00:02.000160,16.05051527,.0000936,53.1587,311.5084,64.6442,115.1364,0,U,69842,999,207,-.19238E-2,-.1359002E-1,.61381E-3
STARLINK-37579,2026-154AA,2026-07-11T12:00:02.000160,16.05395181,.0000972,53.1587,311.4949,57.1563,129.0485,0,U,69843,999,207,-.19331E-2,-.1394177E-1,.64582E-3
STARLINK-37584,2026-154AB,2026-07-11T12:00:02.000160,16.05574821,.000098,53.1588,311.4864,58.3734,131.7160,0,U,69844,999,207,-.1908E-2,-.1391434E-1,.64485E-3
STARLINK-37606,2026-154AC,2026-07-11T12:00:02.000160,16.05807162,.0000837,53.1585,311.4767,55.4729,139.3039,0,U,69845,999,207,-.18907E-2,-.1398592E-1,.65274E-3
STARLINK-37603,2026-154AD,2026-07-11T12:00:02.000160,16.06133495,.0000972,53.1587,311.4647,64.0622,136.3412,0,U,69846,999,207,-.19122E-2,-.1442773E-1,.69379E-3
STARLINK-37595,2026-154AE,2026-07-11T12:00:02.000160,16.06302464,.0000918,53.1586,311.4561,60.5610,143.8472,0,U,69847,999,207,-.18813E-2,-.1434623E-1,.68799E-3
2026-158A,2026-158A,2026-07-11T11:32:29.843808,14.25145244,.0004897,49.9853,296.0945,288.4346,71.6034,0,U,69972,999,17,.3036E-4,-.88E-6,0
2026-158B,2026-158B,2026-07-11T13:13:49.325376,14.24885271,.0005672,49.9848,295.7993,299.2394,60.7952,0,U,69973,999,18,.12249E-3,.128E-5,0
CZ-10B R/B,2026-158C,2026-07-10T19:59:18.017088,14.64294088,.0197627,49.9651,298.6353,184.6042,175.3074,0,U,69974,999,8,.6418E-4,.207E-5,0
